OBJECT_NAME,OBJECT_ID,EPOCH,MEAN_MOTION,ECCENTRICITY,INCLINATION,RA_OF_ASC_NODE,ARG_OF_PERICENTER,MEAN_ANOMALY,EPHEMERIS_TYPE,CLASSIFICATION_TYPE,NORAD_CAT_ID,ELEMENT_SET_NO,REV_AT_EPOCH,BSTAR,MEAN_MOTION_DOT,MEAN_MOTION_DDOT
LEMUR-2-CELIJO-SB-PK,2025-276DW,2026-06-14T10:26:13.187904,14.99952426,.0008979,97.5269,236.3017,139.4950,220.6944,0,U,66781,999,2221,.59531049E-3,.7346E-4,0
LEMUR-2-FINNIAN,2025-276DX,2026-06-14T11:30:10.022688,15.00347814,.00088467,97.5283,236.5565,97.3513,262.8717,0,U,66782,999,1959,.54214421E-3,.6754E-4,0
LEMUR-2-STARLIGHT,2025-276DY,2026-06-14T10:23:49.007040,14.99017594,.00152482,97.5275,236.1657,135.5868,224.6581,0,U,66783,999,2978,.42669684E-3,.5128E-4,0
LEMUR-2-TARTIFLETTE,2025-276DZ,2026-06-14T10:21:42.103584,14.99048902,.00139595,97.5280,236.1708,142.0163,218.2047,0,U,66784,999,2978,.45905493E-3,.5524E-4,0
LEMUR-2-VUKASIN,2025-276EA,2026-06-14T03:51:50.688576,15.00339077,.00062517,97.5317,236.1980,131.2126,228.9637,0,U,66785,999,2969,.47807914E-3,.5944E-4,0
LEMUR-2-HOTSPUR-TOM,2025-276EB,2026-06-14T10:10:42.487104,14.98933186,.00155646,97.5272,236.1449,135.8459,224.4010,0,U,66786,999,2971,.53915387E-3,.6483E-4,0
LEMUR-2-MYRA,2025-276EC,2026-06-14T11:00:59.137920,15.00209332,.00162598,97.5225,236.4293,150.4811,209.7335,0,U,66787,999,2980,.57490776E-3,.7153E-4,0
LEMUR-2 FIKRETDENGIZ,2026-004A,2026-06-14T13:54:30.832992,14.88308082,.00098975,97.8008,164.1774,140.5751,219.6188,0,U,67363,999,2289,.3528494E-3,.3211E-4,0
TWILIGHT-1 OBJECT B,2026-004B,2026-06-14T12:51:19.253664,14.87693888,.00098035,97.8061,164.1508,131.8214,228.3841,0,U,67364,999,2289,.18395618E-3,.1622E-4,0
LEMUR-2-MARIO-SOUSA,2026-004C,2026-06-14T13:31:23.964384,14.88496382,.00094589,97.7984,164.1582,140.7341,219.4563,0,U,67365,999,2290,.41837486E-3,.3836E-4,0
LEMUR-2-SONNENBLUME,2026-004E,2026-06-14T13:28:35.434272,14.88304463,.00089654,97.7980,164.1418,142.5756,217.6087,0,U,67367,999,2290,.27892846E-3,.2526E-4,0
LEMUR-2-WOBLER,2026-004F,2026-06-14T13:19:43.161888,14.88501786,.00094517,97.8033,164.2554,132.7683,227.4331,0,U,67368,999,2290,.38550818E-3,.353E-4,0
LEMUR-2-GRAM-E-SUE,2026-004H,2026-06-14T14:42:56.728512,14.88461396,.00080403,97.7968,164.2075,143.1604,217.0166,0,U,67370,999,2291,.27497068E-3,.2499E-4,0
LEMUR-2-KATIE,2026-004AA,2026-06-14T12:51:50.186592,14.90032505,.00048339,97.8028,164.5822,99.0860,261.0905,0,U,67387,999,2291,.36101384E-3,.343E-4,0
LEMUR-2-HCS-BAZUS,2026-004AB,2026-06-14T12:50:31.805376,14.90046328,.00043824,97.8014,164.5622,95.5857,264.5860,0,U,67388,999,2291,.5269524E-3,.5034E-4,0
